{
  "norad_id": 67113,
  "name": "STARLINK-35789",
  "history": [
    {
      "epoch": "2026-03-28T15:33:15.077088",
      "apogee_km": 483.8945431390066,
      "perigee_km": 482.1542781588096,
      "latitude_deg": -37.60507284169518,
      "longitude_deg": -126.48324767989106,
      "semi_major_axis_km": 6861.161410648908,
      "eccentricity": 0.00012682,
      "inclination_deg": 43.0018,
      "raan_deg": 62.105,
      "arg_perigee_deg": 277.9199,
      "mean_anomaly_deg": 82.1509,
      "mean_motion_rev_day": 15.27588244
    }
  ]
}