{"fetched_at":"2026-03-30T13:17:50Z","count":15418,"tles":[{"name":"STARLINK-35789","line1":"1 67113U 25299M   26087.64809117  .00030786  00000+0  11233-2 0  9999","line2":"2 67113  43.0018  62.1050 0001268 277.9199  82.1509 15.27588244 16010","category":"Starlink"}]}